{
"type": "FeatureCollection",
"name": "rennes_10x10_grid_2",
"crs": { "type": "name", "properties": { "name": "urn:ogc:def:crs:OGC:1.3:CRS84" } },
"xy_coordinate_resolution": 1e-06,
"features": [
{ "type": "Feature", "properties": { "id": 1, "row_index": 0, "col_index": 0 }, "geometry": { "type": "Point", "coordinates": [ -1.681338, 48.112566 ] } },
{ "type": "Feature", "properties": { "id": 2, "row_index": 1, "col_index": 0 }, "geometry": { "type": "Point", "coordinates": [ -1.681338, 48.112266 ] } },
{ "type": "Feature", "properties": { "id": 3, "row_index": 2, "col_index": 0 }, "geometry": { "type": "Point", "coordinates": [ -1.681338, 48.111966 ] } },
{ "type": "Feature", "properties": { "id": 4, "row_index": 3, "col_index": 0 }, "geometry": { "type": "Point", "coordinates": [ -1.681338, 48.111666 ] } },
{ "type": "Feature", "properties": { "id": 5, "row_index": 4, "col_index": 0 }, "geometry": { "type": "Point", "coordinates": [ -1.681338, 48.111367 ] } },
{ "type": "Feature", "properties": { "id": 6, "row_index": 5, "col_index": 0 }, "geometry": { "type": "Point", "coordinates": [ -1.681338, 48.111067 ] } },
{ "type": "Feature", "properties": { "id": 7, "row_index": 6, "col_index": 0 }, "geometry": { "type": "Point", "coordinates": [ -1.681338, 48.110767 ] } },
{ "type": "Feature", "properties": { "id": 8, "row_index": 7, "col_index": 0 }, "geometry": { "type": "Point", "coordinates": [ -1.681338, 48.110467 ] } },
{ "type": "Feature", "properties": { "id": 9, "row_index": 8, "col_index": 0 }, "geometry": { "type": "Point", "coordinates": [ -1.681338, 48.110167 ] } },
{ "type": "Feature", "properties": { "id": 10, "row_index": 9, "col_index": 0 }, "geometry": { "type": "Point", "coordinates": [ -1.681338, 48.109867 ] } },
{ "type": "Feature", "properties": { "id": 17, "row_index": 0, "col_index": 1 }, "geometry": { "type": "Point", "coordinates": [ -1.680889, 48.112566 ] } },
{ "type": "Feature", "properties": { "id": 18, "row_index": 1, "col_index": 1 }, "geometry": { "type": "Point", "coordinates": [ -1.680889, 48.112266 ] } },
{ "type": "Feature", "properties": { "id": 19, "row_index": 2, "col_index": 1 }, "geometry": { "type": "Point", "coordinates": [ -1.680889, 48.111966 ] } },
{ "type": "Feature", "properties": { "id": 20, "row_index": 3, "col_index": 1 }, "geometry": { "type": "Point", "coordinates": [ -1.680889, 48.111666 ] } },
{ "type": "Feature", "properties": { "id": 21, "row_index": 4, "col_index": 1 }, "geometry": { "type": "Point", "coordinates": [ -1.680889, 48.111367 ] } },
{ "type": "Feature", "properties": { "id": 22, "row_index": 5, "col_index": 1 }, "geometry": { "type": "Point", "coordinates": [ -1.680889, 48.111067 ] } },
{ "type": "Feature", "properties": { "id": 23, "row_index": 6, "col_index": 1 }, "geometry": { "type": "Point", "coordinates": [ -1.680889, 48.110767 ] } },
{ "type": "Feature", "properties": { "id": 24, "row_index": 7, "col_index": 1 }, "geometry": { "type": "Point", "coordinates": [ -1.680889, 48.110467 ] } },
{ "type": "Feature", "properties": { "id": 25, "row_index": 8, "col_index": 1 }, "geometry": { "type": "Point", "coordinates": [ -1.680889, 48.110167 ] } },
{ "type": "Feature", "properties": { "id": 26, "row_index": 9, "col_index": 1 }, "geometry": { "type": "Point", "coordinates": [ -1.680889, 48.109867 ] } },
{ "type": "Feature", "properties": { "id": 33, "row_index": 0, "col_index": 2 }, "geometry": { "type": "Point", "coordinates": [ -1.68044, 48.112566 ] } },
{ "type": "Feature", "properties": { "id": 34, "row_index": 1, "col_index": 2 }, "geometry": { "type": "Point", "coordinates": [ -1.68044, 48.112266 ] } },
{ "type": "Feature", "properties": { "id": 35, "row_index": 2, "col_index": 2 }, "geometry": { "type": "Point", "coordinates": [ -1.68044, 48.111966 ] } },
{ "type": "Feature", "properties": { "id": 36, "row_index": 3, "col_index": 2 }, "geometry": { "type": "Point", "coordinates": [ -1.68044, 48.111666 ] } },
{ "type": "Feature", "properties": { "id": 37, "row_index": 4, "col_index": 2 }, "geometry": { "type": "Point", "coordinates": [ -1.68044, 48.111367 ] } },
{ "type": "Feature", "properties": { "id": 38, "row_index": 5, "col_index": 2 }, "geometry": { "type": "Point", "coordinates": [ -1.68044, 48.111067 ] } },
{ "type": "Feature", "properties": { "id": 39, "row_index": 6, "col_index": 2 }, "geometry": { "type": "Point", "coordinates": [ -1.68044, 48.110767 ] } },
{ "type": "Feature", "properties": { "id": 40, "row_index": 7, "col_index": 2 }, "geometry": { "type": "Point", "coordinates": [ -1.68044, 48.110467 ] } },
{ "type": "Feature", "properties": { "id": 41, "row_index": 8, "col_index": 2 }, "geometry": { "type": "Point", "coordinates": [ -1.68044, 48.110167 ] } },
{ "type": "Feature", "properties": { "id": 42, "row_index": 9, "col_index": 2 }, "geometry": { "type": "Point", "coordinates": [ -1.68044, 48.109867 ] } },
{ "type": "Feature", "properties": { "id": 49, "row_index": 0, "col_index": 3 }, "geometry": { "type": "Point", "coordinates": [ -1.679991, 48.112566 ] } },
{ "type": "Feature", "properties": { "id": 50, "row_index": 1, "col_index": 3 }, "geometry": { "type": "Point", "coordinates": [ -1.679991, 48.112266 ] } },
{ "type": "Feature", "properties": { "id": 51, "row_index": 2, "col_index": 3 }, "geometry": { "type": "Point", "coordinates": [ -1.679991, 48.111966 ] } },
{ "type": "Feature", "properties": { "id": 52, "row_index": 3, "col_index": 3 }, "geometry": { "type": "Point", "coordinates": [ -1.679991, 48.111666 ] } },
{ "type": "Feature", "properties": { "id": 53, "row_index": 4, "col_index": 3 }, "geometry": { "type": "Point", "coordinates": [ -1.679991, 48.111367 ] } },
{ "type": "Feature", "properties": { "id": 54, "row_index": 5, "col_index": 3 }, "geometry": { "type": "Point", "coordinates": [ -1.679991, 48.111067 ] } },
{ "type": "Feature", "properties": { "id": 55, "row_index": 6, "col_index": 3 }, "geometry": { "type": "Point", "coordinates": [ -1.679991, 48.110767 ] } },
{ "type": "Feature", "properties": { "id": 56, "row_index": 7, "col_index": 3 }, "geometry": { "type": "Point", "coordinates": [ -1.679991, 48.110467 ] } },
{ "type": "Feature", "properties": { "id": 57, "row_index": 8, "col_index": 3 }, "geometry": { "type": "Point", "coordinates": [ -1.679991, 48.110167 ] } },
{ "type": "Feature", "properties": { "id": 58, "row_index": 9, "col_index": 3 }, "geometry": { "type": "Point", "coordinates": [ -1.679991, 48.109867 ] } },
{ "type": "Feature", "properties": { "id": 65, "row_index": 0, "col_index": 4 }, "geometry": { "type": "Point", "coordinates": [ -1.679542, 48.112566 ] } },
{ "type": "Feature", "properties": { "id": 66, "row_index": 1, "col_index": 4 }, "geometry": { "type": "Point", "coordinates": [ -1.679542, 48.112266 ] } },
{ "type": "Feature", "properties": { "id": 67, "row_index": 2, "col_index": 4 }, "geometry": { "type": "Point", "coordinates": [ -1.679542, 48.111966 ] } },
{ "type": "Feature", "properties": { "id": 68, "row_index": 3, "col_index": 4 }, "geometry": { "type": "Point", "coordinates": [ -1.679542, 48.111666 ] } },
{ "type": "Feature", "properties": { "id": 69, "row_index": 4, "col_index": 4 }, "geometry": { "type": "Point", "coordinates": [ -1.679542, 48.111367 ] } },
{ "type": "Feature", "properties": { "id": 70, "row_index": 5, "col_index": 4 }, "geometry": { "type": "Point", "coordinates": [ -1.679542, 48.111067 ] } },
{ "type": "Feature", "properties": { "id": 71, "row_index": 6, "col_index": 4 }, "geometry": { "type": "Point", "coordinates": [ -1.679542, 48.110767 ] } },
{ "type": "Feature", "properties": { "id": 72, "row_index": 7, "col_index": 4 }, "geometry": { "type": "Point", "coordinates": [ -1.679542, 48.110467 ] } },
{ "type": "Feature", "properties": { "id": 73, "row_index": 8, "col_index": 4 }, "geometry": { "type": "Point", "coordinates": [ -1.679542, 48.110167 ] } },
{ "type": "Feature", "properties": { "id": 74, "row_index": 9, "col_index": 4 }, "geometry": { "type": "Point", "coordinates": [ -1.679542, 48.109867 ] } },
{ "type": "Feature", "properties": { "id": 81, "row_index": 0, "col_index": 5 }, "geometry": { "type": "Point", "coordinates": [ -1.679093, 48.112566 ] } },
{ "type": "Feature", "properties": { "id": 82, "row_index": 1, "col_index": 5 }, "geometry": { "type": "Point", "coordinates": [ -1.679093, 48.112266 ] } },
{ "type": "Feature", "properties": { "id": 83, "row_index": 2, "col_index": 5 }, "geometry": { "type": "Point", "coordinates": [ -1.679093, 48.111966 ] } },
{ "type": "Feature", "properties": { "id": 84, "row_index": 3, "col_index": 5 }, "geometry": { "type": "Point", "coordinates": [ -1.679093, 48.111666 ] } },
{ "type": "Feature", "properties": { "id": 85, "row_index": 4, "col_index": 5 }, "geometry": { "type": "Point", "coordinates": [ -1.679093, 48.111367 ] } },
{ "type": "Feature", "properties": { "id": 86, "row_index": 5, "col_index": 5 }, "geometry": { "type": "Point", "coordinates": [ -1.679093, 48.111067 ] } },
{ "type": "Feature", "properties": { "id": 87, "row_index": 6, "col_index": 5 }, "geometry": { "type": "Point", "coordinates": [ -1.679093, 48.110767 ] } },
{ "type": "Feature", "properties": { "id": 88, "row_index": 7, "col_index": 5 }, "geometry": { "type": "Point", "coordinates": [ -1.679093, 48.110467 ] } },
{ "type": "Feature", "properties": { "id": 89, "row_index": 8, "col_index": 5 }, "geometry": { "type": "Point", "coordinates": [ -1.679093, 48.110167 ] } },
{ "type": "Feature", "properties": { "id": 90, "row_index": 9, "col_index": 5 }, "geometry": { "type": "Point", "coordinates": [ -1.679093, 48.109867 ] } },
{ "type": "Feature", "properties": { "id": 97, "row_index": 0, "col_index": 6 }, "geometry": { "type": "Point", "coordinates": [ -1.678644, 48.112566 ] } },
{ "type": "Feature", "properties": { "id": 98, "row_index": 1, "col_index": 6 }, "geometry": { "type": "Point", "coordinates": [ -1.678644, 48.112266 ] } },
{ "type": "Feature", "properties": { "id": 99, "row_index": 2, "col_index": 6 }, "geometry": { "type": "Point", "coordinates": [ -1.678644, 48.111966 ] } },
{ "type": "Feature", "properties": { "id": 100, "row_index": 3, "col_index": 6 }, "geometry": { "type": "Point", "coordinates": [ -1.678644, 48.111666 ] } },
{ "type": "Feature", "properties": { "id": 101, "row_index": 4, "col_index": 6 }, "geometry": { "type": "Point", "coordinates": [ -1.678644, 48.111367 ] } },
{ "type": "Feature", "properties": { "id": 102, "row_index": 5, "col_index": 6 }, "geometry": { "type": "Point", "coordinates": [ -1.678644, 48.111067 ] } },
{ "type": "Feature", "properties": { "id": 103, "row_index": 6, "col_index": 6 }, "geometry": { "type": "Point", "coordinates": [ -1.678644, 48.110767 ] } },
{ "type": "Feature", "properties": { "id": 104, "row_index": 7, "col_index": 6 }, "geometry": { "type": "Point", "coordinates": [ -1.678644, 48.110467 ] } },
{ "type": "Feature", "properties": { "id": 105, "row_index": 8, "col_index": 6 }, "geometry": { "type": "Point", "coordinates": [ -1.678644, 48.110167 ] } },
{ "type": "Feature", "properties": { "id": 106, "row_index": 9, "col_index": 6 }, "geometry": { "type": "Point", "coordinates": [ -1.678644, 48.109867 ] } },
{ "type": "Feature", "properties": { "id": 113, "row_index": 0, "col_index": 7 }, "geometry": { "type": "Point", "coordinates": [ -1.678194, 48.112566 ] } },
{ "type": "Feature", "properties": { "id": 114, "row_index": 1, "col_index": 7 }, "geometry": { "type": "Point", "coordinates": [ -1.678194, 48.112266 ] } },
{ "type": "Feature", "properties": { "id": 115, "row_index": 2, "col_index": 7 }, "geometry": { "type": "Point", "coordinates": [ -1.678194, 48.111966 ] } },
{ "type": "Feature", "properties": { "id": 116, "row_index": 3, "col_index": 7 }, "geometry": { "type": "Point", "coordinates": [ -1.678194, 48.111666 ] } },
{ "type": "Feature", "properties": { "id": 117, "row_index": 4, "col_index": 7 }, "geometry": { "type": "Point", "coordinates": [ -1.678194, 48.111367 ] } },
{ "type": "Feature", "properties": { "id": 118, "row_index": 5, "col_index": 7 }, "geometry": { "type": "Point", "coordinates": [ -1.678194, 48.111067 ] } },
{ "type": "Feature", "properties": { "id": 119, "row_index": 6, "col_index": 7 }, "geometry": { "type": "Point", "coordinates": [ -1.678194, 48.110767 ] } },
{ "type": "Feature", "properties": { "id": 120, "row_index": 7, "col_index": 7 }, "geometry": { "type": "Point", "coordinates": [ -1.678194, 48.110467 ] } },
{ "type": "Feature", "properties": { "id": 121, "row_index": 8, "col_index": 7 }, "geometry": { "type": "Point", "coordinates": [ -1.678194, 48.110167 ] } },
{ "type": "Feature", "properties": { "id": 122, "row_index": 9, "col_index": 7 }, "geometry": { "type": "Point", "coordinates": [ -1.678194, 48.109867 ] } },
{ "type": "Feature", "properties": { "id": 129, "row_index": 0, "col_index": 8 }, "geometry": { "type": "Point", "coordinates": [ -1.677745, 48.112566 ] } },
{ "type": "Feature", "properties": { "id": 130, "row_index": 1, "col_index": 8 }, "geometry": { "type": "Point", "coordinates": [ -1.677745, 48.112266 ] } },
{ "type": "Feature", "properties": { "id": 131, "row_index": 2, "col_index": 8 }, "geometry": { "type": "Point", "coordinates": [ -1.677745, 48.111966 ] } },
{ "type": "Feature", "properties": { "id": 132, "row_index": 3, "col_index": 8 }, "geometry": { "type": "Point", "coordinates": [ -1.677745, 48.111666 ] } },
{ "type": "Feature", "properties": { "id": 133, "row_index": 4, "col_index": 8 }, "geometry": { "type": "Point", "coordinates": [ -1.677745, 48.111367 ] } },
{ "type": "Feature", "properties": { "id": 134, "row_index": 5, "col_index": 8 }, "geometry": { "type": "Point", "coordinates": [ -1.677745, 48.111067 ] } },
{ "type": "Feature", "properties": { "id": 135, "row_index": 6, "col_index": 8 }, "geometry": { "type": "Point", "coordinates": [ -1.677745, 48.110767 ] } },
{ "type": "Feature", "properties": { "id": 136, "row_index": 7, "col_index": 8 }, "geometry": { "type": "Point", "coordinates": [ -1.677745, 48.110467 ] } },
{ "type": "Feature", "properties": { "id": 137, "row_index": 8, "col_index": 8 }, "geometry": { "type": "Point", "coordinates": [ -1.677745, 48.110167 ] } },
{ "type": "Feature", "properties": { "id": 138, "row_index": 9, "col_index": 8 }, "geometry": { "type": "Point", "coordinates": [ -1.677745, 48.109867 ] } },
{ "type": "Feature", "properties": { "id": 145, "row_index": 0, "col_index": 9 }, "geometry": { "type": "Point", "coordinates": [ -1.677296, 48.112566 ] } },
{ "type": "Feature", "properties": { "id": 146, "row_index": 1, "col_index": 9 }, "geometry": { "type": "Point", "coordinates": [ -1.677296, 48.112266 ] } },
{ "type": "Feature", "properties": { "id": 147, "row_index": 2, "col_index": 9 }, "geometry": { "type": "Point", "coordinates": [ -1.677296, 48.111966 ] } },
{ "type": "Feature", "properties": { "id": 148, "row_index": 3, "col_index": 9 }, "geometry": { "type": "Point", "coordinates": [ -1.677296, 48.111666 ] } },
{ "type": "Feature", "properties": { "id": 149, "row_index": 4, "col_index": 9 }, "geometry": { "type": "Point", "coordinates": [ -1.677296, 48.111367 ] } },
{ "type": "Feature", "properties": { "id": 150, "row_index": 5, "col_index": 9 }, "geometry": { "type": "Point", "coordinates": [ -1.677296, 48.111067 ] } },
{ "type": "Feature", "properties": { "id": 151, "row_index": 6, "col_index": 9 }, "geometry": { "type": "Point", "coordinates": [ -1.677296, 48.110767 ] } },
{ "type": "Feature", "properties": { "id": 152, "row_index": 7, "col_index": 9 }, "geometry": { "type": "Point", "coordinates": [ -1.677296, 48.110467 ] } },
{ "type": "Feature", "properties": { "id": 153, "row_index": 8, "col_index": 9 }, "geometry": { "type": "Point", "coordinates": [ -1.677296, 48.110167 ] } },
{ "type": "Feature", "properties": { "id": 154, "row_index": 9, "col_index": 9 }, "geometry": { "type": "Point", "coordinates": [ -1.677296, 48.109867 ] } }
]
}
