{
"type": "FeatureCollection",
"name": "lifts_z",
"crs": { "type": "name", "properties": { "name": "urn:ogc:def:crs:OGC:1.3:CRS84" } },
"features": [
{ "type": "Feature", "properties": { }, "geometry": { "type": "MultiLineString", "coordinates": [ [ [ 6.8247706, 45.5727266, 2020.041015625 ], [ 6.8248062, 45.5725928, 2019.13525390625 ], [ 6.8248957, 45.5722331, 2028.1031494140625 ], [ 6.8251852, 45.5713326, 2046.039306640625 ], [ 6.8253839, 45.5706208, 2068.188232421875 ], [ 6.825756, 45.5693799, 2117.797119140625 ], [ 6.8257807, 45.5693056, 2119.563232421875 ], [ 6.8259069, 45.5688392, 2115.51513671875 ], [ 6.8261914, 45.5679287, 2137.908203125 ], [ 6.8264089, 45.5671637, 2174.599853515625 ], [ 6.8265347, 45.5667434, 2179.736572265625 ], [ 6.8266720839, 45.566326421600003, 2179.635986328125 ] ] ] } },
{ "type": "Feature", "properties": { }, "geometry": { "type": "MultiLineString", "coordinates": [ [ [ 6.8286368, 45.5697805, 2121.679443359375 ], [ 6.8290131273, 45.568916770500003, 2136.00390625 ] ] ] } },
{ "type": "Feature", "properties": { }, "geometry": { "type": "MultiLineString", "coordinates": [ [ [ 6.8280883, 45.5694725, 2119.33740234375 ], [ 6.8282167, 45.5692474, 2117.339599609375 ], [ 6.828638039, 45.568501737699997, 2139.829345703125 ] ] ] } },
{ "type": "Feature", "properties": { }, "geometry": { "type": "MultiLineString", "coordinates": [ [ [ 6.7794092, 45.5733672, 1712.870361328125 ], [ 6.7797053, 45.5733035, 1711.41015625 ], [ 6.7813049, 45.5729625, 1743.4970703125 ], [ 6.7829793, 45.5726058, 1778.2364501953125 ], [ 6.7840461, 45.57238, 1795.356201171875 ], [ 6.7857455, 45.5720202, 1812.5179443359375 ], [ 6.7875653, 45.571635, 1834.8519287109375 ], [ 6.7887553, 45.5713831, 1854.681396484375 ], [ 6.7899862, 45.5711225, 1873.6949462890625 ], [ 6.7913923, 45.5708248, 1915.1334228515625 ], [ 6.7926658, 45.5705552, 1965.7950439453125 ], [ 6.7941328, 45.5702446, 2016.48291015625 ], [ 6.795652, 45.569923, 2074.972412109375 ], [ 6.796813, 45.5696772, 2108.898681640625 ], [ 6.7986477, 45.5692888, 2157.365478515625 ], [ 6.8004351, 45.5689104, 2197.3642578125 ], [ 6.8021785, 45.5685413, 2237.099609375 ], [ 6.8041167, 45.568131, 2273.6376953125 ], [ 6.804424, 45.5680642, 2282.876953125 ] ] ] } },
{ "type": "Feature", "properties": { }, "geometry": { "type": "MultiLineString", "coordinates": [ [ [ 6.7800515, 45.5572602, 1931.914794921875 ], [ 6.7808407, 45.5572138, 1943.5023193359375 ], [ 6.7816179, 45.5571678, 1955.4049072265625 ], [ 6.7831749, 45.5570757, 1985.8892822265625 ], [ 6.7846459, 45.5569887, 2016.8074951171875 ], [ 6.7857109, 45.5569257, 2024.18408203125 ], [ 6.7888779, 45.5567383, 2072.639892578125 ], [ 6.7904474, 45.5566455, 2112.219482421875 ], [ 6.7922753, 45.5565374, 2149.57763671875 ], [ 6.7937384, 45.5564508, 2183.271728515625 ], [ 6.7954366, 45.5563504, 2242.167724609375 ], [ 6.7966273, 45.5562795, 2281.023681640625 ], [ 6.7977189, 45.5562162, 2325.167724609375 ], [ 6.7978344, 45.5562085, 2328.55419921875 ], [ 6.7982104, 45.5561863, 2330.492431640625 ] ] ] } },
{ "type": "Feature", "properties": { }, "geometry": { "type": "MultiLineString", "coordinates": [ [ [ 6.7628263, 45.5565078, 1564.121826171875 ], [ 6.7632251, 45.5564169, 1562.24267578125 ], [ 6.7633529, 45.5563877, 1564.1148681640625 ], [ 6.76381, 45.5562836, 1581.2783203125 ], [ 6.7649313, 45.5560239, 1603.4854736328125 ], [ 6.7665411, 45.5556548, 1635.4864501953125 ], [ 6.7684328, 45.555221, 1679.9163818359375 ], [ 6.7708991, 45.5546564, 1764.89306640625 ], [ 6.7728141, 45.5542167, 1815.9652099609375 ], [ 6.7744408, 45.553847, 1854.794677734375 ], [ 6.7758533, 45.5535255, 1891.530029296875 ], [ 6.7789695, 45.5528094, 1958.7261962890625 ], [ 6.7821595, 45.5520773, 2026.8017578125 ], [ 6.7839259, 45.5516682, 2061.270751953125 ], [ 6.785541, 45.5512988, 2104.367431640625 ], [ 6.7868625, 45.5510025, 2130.13623046875 ], [ 6.7872815, 45.5509259, 2136.373779296875 ] ] ] } },
{ "type": "Feature", "properties": { }, "geometry": { "type": "MultiLineString", "coordinates": [ [ [ 6.7667778058, 45.550211841399999, 1682.89404296875 ], [ 6.7675006, 45.5500998, 1699.39208984375 ], [ 6.7695386, 45.5497828, 1759.930908203125 ], [ 6.7705514, 45.5496252, 1797.3011474609375 ], [ 6.7719693, 45.5494047, 1837.4307861328125 ], [ 6.773579, 45.5491543, 1882.287841796875 ], [ 6.7738697, 45.5491158, 1888.83056640625 ], [ 6.7747269, 45.5489758, 1906.9329833984375 ], [ 6.775505, 45.5488547, 1925.598876953125 ], [ 6.7767488, 45.5486613, 1974.057861328125 ], [ 6.7779827, 45.5484693, 2005.817626953125 ], [ 6.779377, 45.5482525, 2024.7664794921875 ], [ 6.7812757, 45.5479571, 2056.80908203125 ], [ 6.7821545, 45.5478204, 2067.905517578125 ], [ 6.7833812, 45.5476296, 2085.825439453125 ] ] ] } },
{ "type": "Feature", "properties": { }, "geometry": { "type": "MultiLineString", "coordinates": [ [ [ 6.8242787, 45.5730687, 2019.4345703125 ], [ 6.8240362, 45.5730441, 2019.2039794921875 ], [ 6.8232791, 45.5729675, 2030.8492431640625 ], [ 6.8219263, 45.5728416, 2069.96240234375 ], [ 6.8202958, 45.5726899, 2153.27392578125 ], [ 6.8189312, 45.572563, 2203.586669921875 ], [ 6.8171863, 45.5724006, 2268.484375 ], [ 6.8169133, 45.5723752, 2275.130859375 ], [ 6.8146976, 45.5721691, 2297.67724609375 ], [ 6.8130635, 45.5720139, 2393.193359375 ], [ 6.8127662, 45.5719857, 2403.30810546875 ], [ 6.8124695, 45.5719575, 2408.713134765625 ], [ 6.8119758, 45.5719106, 2415.0068359375 ] ] ] } },
{ "type": "Feature", "properties": { }, "geometry": { "type": "MultiLineString", "coordinates": [ [ [ 6.824117, 45.5644608, 2184.125732421875 ], [ 6.8239531, 45.5642968, 2182.45361328125 ], [ 6.8235376, 45.5638846, 2193.302978515625 ], [ 6.822499, 45.5628451, 2204.249267578125 ], [ 6.8212074, 45.5615604, 2231.2509765625 ], [ 6.8205638, 45.5609202, 2250.152099609375 ], [ 6.8195556, 45.5599173, 2258.98876953125 ], [ 6.8185047, 45.5588196, 2280.55322265625 ], [ 6.8171594, 45.5574633, 2306.6591796875 ], [ 6.8157241, 45.5560146, 2344.90478515625 ], [ 6.8152786, 45.5555665, 2354.8291015625 ], [ 6.8146809, 45.5549653, 2370.15478515625 ], [ 6.8137701, 45.5540506, 2420.6318359375 ], [ 6.8128825, 45.5531596, 2451.17626953125 ], [ 6.8120246, 45.5522919, 2494.433349609375 ], [ 6.810769, 45.5510011, 2543.874267578125 ] ] ] } },
{ "type": "Feature", "properties": { }, "geometry": { "type": "MultiLineString", "coordinates": [ [ [ 6.794801, 45.5962893, 1627.7440185546875 ], [ 6.7949807, 45.5961763, 1626.54052734375 ], [ 6.7950699, 45.5961262, 1628.173828125 ], [ 6.7953877, 45.5959336, 1641.761474609375 ], [ 6.7966338, 45.5951713, 1688.8592529296875 ], [ 6.7979399, 45.5943711, 1716.7725830078125 ], [ 6.7992703, 45.5935798, 1758.1279296875 ], [ 6.8006122, 45.5927603, 1826.1165771484375 ], [ 6.8018271, 45.5920021, 1889.5855712890625 ], [ 6.8030077, 45.5912898, 1951.7335205078125 ], [ 6.8040298, 45.5906698, 1985.16064453125 ], [ 6.805401, 45.5898572, 2032.6207275390625 ], [ 6.8068684, 45.5889474, 2087.77490234375 ], [ 6.8082649, 45.5881136, 2159.681396484375 ], [ 6.8090122, 45.587626, 2189.344970703125 ], [ 6.8100774, 45.5869819, 2256.321533203125 ], [ 6.8101104, 45.5869667, 2258.00390625 ], [ 6.8101491, 45.5869516, 2259.079833984375 ], [ 6.8103228, 45.5868485, 2270.86865234375 ] ] ] } },
{ "type": "Feature", "properties": { }, "geometry": { "type": "MultiLineString", "coordinates": [ [ [ 6.7940272, 45.5960436, 1623.041748046875 ], [ 6.7941692, 45.5958855, 1621.757568359375 ], [ 6.7946397, 45.5952976, 1644.408447265625 ], [ 6.7955435, 45.5942971, 1677.774658203125 ], [ 6.7971705, 45.5924958, 1746.789306640625 ], [ 6.7981855, 45.591372, 1780.2227783203125 ], [ 6.7984932, 45.5910314, 1792.987548828125 ], [ 6.7996926, 45.5897034, 1879.4688720703125 ], [ 6.8012254, 45.5880063, 1955.7913818359375 ], [ 6.8024602, 45.5866392, 2017.666748046875 ], [ 6.8033197, 45.5856874, 2073.25634765625 ], [ 6.8042285, 45.5846812, 2115.34619140625 ], [ 6.8051145, 45.58372, 2150.28955078125 ], [ 6.8053789, 45.5834132, 2156.458740234375 ], [ 6.8054458, 45.5833334, 2159.4521484375 ], [ 6.8057576, 45.582988, 2173.241943359375 ] ] ] } },
{ "type": "Feature", "properties": { }, "geometry": { "type": "MultiLineString", "coordinates": [ [ [ 6.7651113, 45.5555139, 1612.4268798828125 ], [ 6.7653491, 45.5554491, 1610.607421875 ], [ 6.7664692, 45.5551439, 1642.911376953125 ], [ 6.7680613, 45.55471, 1680.6182861328125 ], [ 6.7696575, 45.554275, 1743.362548828125 ], [ 6.7709487, 45.5539231, 1779.651123046875 ], [ 6.772397, 45.5535285, 1814.568359375 ], [ 6.7741982, 45.5530376, 1856.2642822265625 ], [ 6.7762358, 45.5524823, 1900.4820556640625 ], [ 6.7777485, 45.5520701, 1938.236572265625 ], [ 6.7809705, 45.551192, 2020.3902587890625 ], [ 6.7831045, 45.5506104, 2055.073486328125 ], [ 6.7854073, 45.5499829, 2107.52197265625 ], [ 6.7869213, 45.5495702, 2139.775390625 ], [ 6.7886585, 45.5490968, 2181.262939453125 ], [ 6.7903868, 45.5486258, 2228.247314453125 ], [ 6.7919378, 45.5482031, 2265.816162109375 ], [ 6.7920222, 45.5481801, 2269.979248046875 ], [ 6.7922308, 45.5481232, 2279.9326171875 ] ] ] } },
{ "type": "Feature", "properties": { }, "geometry": { "type": "MultiLineString", "coordinates": [ [ [ 6.781026, 45.5503053, 2021.54248046875 ], [ 6.7818675, 45.5500954, 2032.8492431640625 ], [ 6.7825614, 45.5499223, 2048.198486328125 ], [ 6.784108, 45.5495365, 2078.859130859375 ], [ 6.7851352, 45.5492803, 2105.39501953125 ], [ 6.7863997, 45.5489648, 2134.65478515625 ], [ 6.787583, 45.5486697, 2162.28369140625 ], [ 6.7887175, 45.5483867, 2185.5634765625 ], [ 6.788816, 45.5483621, 2188.815673828125 ], [ 6.7889903, 45.5483186, 2195.7626953125 ] ] ] } },
{ "type": "Feature", "properties": { }, "geometry": { "type": "MultiLineString", "coordinates": [ [ [ 6.8205376, 45.5604166, 2247.407470703125 ], [ 6.8197192, 45.5595931, 2261.665283203125 ], [ 6.8187522, 45.5586291, 2280.596435546875 ], [ 6.8173669, 45.5572613, 2313.00244140625 ], [ 6.8159449, 45.5558304, 2337.935302734375 ], [ 6.8154097, 45.5552887, 2354.601318359375 ], [ 6.8147701, 45.5546639, 2371.48486328125 ], [ 6.8139144, 45.5538061, 2422.400634765625 ], [ 6.813194, 45.5530889, 2443.760009765625 ], [ 6.8122805, 45.552177, 2495.156982421875 ], [ 6.8110307, 45.5509165, 2543.734375 ] ] ] } },
{ "type": "Feature", "properties": { }, "geometry": { "type": "MultiLineString", "coordinates": [ [ [ 6.7959806, 45.5746673, 2027.7503662109375 ], [ 6.7963318, 45.5746148, 2025.310791015625 ], [ 6.7964404, 45.5745985, 2025.8138427734375 ], [ 6.7973611, 45.5744609, 2066.5146484375 ], [ 6.7991173, 45.5742022, 2100.490966796875 ], [ 6.8009827, 45.5739193, 2128.14794921875 ], [ 6.8032267, 45.5735837, 2167.27099609375 ], [ 6.8047395, 45.5733574, 2216.295654296875 ], [ 6.8067613, 45.5730551, 2242.40625 ], [ 6.807893, 45.5728858, 2282.951904296875 ], [ 6.8093424, 45.5726691, 2301.594482421875 ], [ 6.8094866, 45.5726475, 2305.166748046875 ], [ 6.8109792, 45.5724243, 2398.475830078125 ], [ 6.8110655, 45.5724108, 2404.154052734375 ], [ 6.8111337, 45.5724002, 2406.0888671875 ], [ 6.8114352, 45.572353, 2416.11279296875 ] ] ] } },
{ "type": "Feature", "properties": { }, "geometry": { "type": "MultiLineString", "coordinates": [ [ [ 6.8331601, 45.5826591, 1828.1624755859375 ], [ 6.8328704, 45.5827185, 1826.80810546875 ], [ 6.8322679, 45.5828157, 1839.572265625 ], [ 6.8305115, 45.5831404, 1878.835693359375 ], [ 6.82857, 45.5834871, 1962.842041015625 ], [ 6.8279863, 45.5835897, 1997.4737548828125 ], [ 6.8264913, 45.5838602, 2018.762939453125 ], [ 6.8248162, 45.5841604, 2071.071533203125 ], [ 6.8229343, 45.5844799, 2137.5439453125 ], [ 6.8207856, 45.5848879, 2224.0908203125 ], [ 6.8205364, 45.5849355, 2224.060302734375 ], [ 6.8184589, 45.5852939, 2246.751953125 ], [ 6.8168715, 45.5855827, 2272.30859375 ], [ 6.8142602, 45.5860588, 2313.83447265625 ], [ 6.8140477, 45.5860963, 2315.35986328125 ] ] ] } },
{ "type": "Feature", "properties": { }, "geometry": { "type": "MultiLineString", "coordinates": [ [ [ 6.8285396, 45.5718007, 2052.278564453125 ], [ 6.8286991, 45.5717085, 2051.356201171875 ], [ 6.828782, 45.5716623, 2051.354248046875 ], [ 6.8289669, 45.571554, 2051.14990234375 ], [ 6.8304961, 45.5706968, 2113.761474609375 ], [ 6.8305756, 45.5706548, 2126.94775390625 ], [ 6.8305812786, 45.570651919399999, 2127.397216796875 ] ] ] } },
{ "type": "Feature", "properties": { }, "geometry": { "type": "MultiLineString", "coordinates": [ [ [ 6.7995985, 45.5778566, 2086.720458984375 ], [ 6.8005251, 45.5775897, 2104.694580078125 ], [ 6.8012495, 45.577381, 2120.653564453125 ], [ 6.8023195, 45.5770728, 2138.178955078125 ], [ 6.803652, 45.5766898, 2158.647705078125 ], [ 6.8050487, 45.5762867, 2182.31494140625 ], [ 6.8061136, 45.5759799, 2204.05322265625 ], [ 6.8074494, 45.5755952, 2232.44775390625 ], [ 6.8079243, 45.5754537, 2233.921630859375 ] ] ] } },
{ "type": "Feature", "properties": { }, "geometry": { "type": "MultiLineString", "coordinates": [ [ [ 6.7983285, 45.5804665, 2029.697998046875 ], [ 6.7985599, 45.58049, 2029.5791015625 ], [ 6.7991755, 45.5805495, 2050.485107421875 ], [ 6.8001381, 45.5806365, 2068.265380859375 ], [ 6.801303, 45.5807578, 2096.85009765625 ], [ 6.8020356, 45.5808228, 2121.429443359375 ], [ 6.8030586, 45.5809256, 2132.40185546875 ], [ 6.8042732, 45.5810476, 2148.28564453125 ], [ 6.8057265, 45.5811936, 2185.505859375 ], [ 6.8067035, 45.5812917, 2198.75048828125 ], [ 6.8078901, 45.5814109, 2209.2744140625 ], [ 6.8088701, 45.5815094, 2220.690673828125 ], [ 6.8103169, 45.5816547, 2287.56689453125 ], [ 6.8117952, 45.5818032, 2341.4013671875 ], [ 6.8125846, 45.5818825, 2366.02001953125 ], [ 6.8126593, 45.58189, 2368.84375 ], [ 6.8128721, 45.5819114, 2375.5029296875 ] ] ] } },
{ "type": "Feature", "properties": { }, "geometry": { "type": "MultiLineString", "coordinates": [ [ [ 6.7925773, 45.5946287, 1622.741455078125 ], [ 6.7932688, 45.594216, 1641.4312744140625 ], [ 6.7938161, 45.5938894, 1657.2930908203125 ], [ 6.7946495, 45.593392, 1678.8472900390625 ], [ 6.7952594, 45.593028, 1694.5765380859375 ], [ 6.7968474, 45.5920802, 1743.9935302734375 ], [ 6.7972867, 45.591818, 1757.33984375 ] ] ] } },
{ "type": "Feature", "properties": { }, "geometry": { "type": "MultiLineString", "coordinates": [ [ [ 6.7742776, 45.5688048, 1673.0546875 ], [ 6.7744624, 45.5687589, 1673.0133056640625 ], [ 6.7745621, 45.5687313, 1674.306884765625 ], [ 6.775127, 45.568577, 1696.7464599609375 ], [ 6.7758427, 45.5683771, 1715.591796875 ], [ 6.7766859, 45.5681662, 1731.0189208984375 ], [ 6.7772917, 45.5679763, 1741.681396484375 ], [ 6.7778819, 45.5678131, 1750.236083984375 ], [ 6.7786383, 45.5676203, 1766.629638671875 ], [ 6.7789657, 45.5675262, 1769.6507568359375 ] ] ] } },
{ "type": "Feature", "properties": { }, "geometry": { "type": "MultiLineString", "coordinates": [ [ [ 6.7772898, 45.5679188, 1741.42822265625 ], [ 6.7779727, 45.5676758, 1755.7916259765625 ], [ 6.7786716, 45.567427, 1767.9520263671875 ], [ 6.7799807, 45.5669612, 1787.291259765625 ], [ 6.7807615, 45.5666833, 1803.5635986328125 ], [ 6.7817254, 45.5663403, 1814.722900390625 ], [ 6.7831604, 45.5658296, 1839.7310791015625 ], [ 6.7842819, 45.5654304, 1861.831787109375 ], [ 6.7853502, 45.5650502, 1883.307861328125 ], [ 6.7860752, 45.5647922, 1895.794921875 ], [ 6.7874486, 45.5643034, 1929.999267578125 ], [ 6.7882315, 45.5640248, 1957.0816650390625 ], [ 6.7891169, 45.5637097, 1979.1014404296875 ], [ 6.7900966, 45.563361, 2009.961669921875 ], [ 6.7911276, 45.562994, 2038.4337158203125 ], [ 6.7921587, 45.5626271, 2068.63671875 ], [ 6.7930273, 45.5623179, 2086.958984375 ], [ 6.7945826, 45.5617644, 2119.06201171875 ], [ 6.7947137, 45.5617177, 2123.111083984375 ], [ 6.7948974, 45.5616518, 2124.453857421875 ] ] ] } },
{ "type": "Feature", "properties": { }, "geometry": { "type": "MultiLineString", "coordinates": [ [ [ 6.7790284, 45.5719807, 1707.11376953125 ], [ 6.77924, 45.5719486, 1706.840087890625 ], [ 6.7793429, 45.5719317, 1706.9718017578125 ], [ 6.7798042, 45.5718524, 1723.20361328125 ], [ 6.78175, 45.5715588, 1758.4442138671875 ], [ 6.7832348, 45.5713307, 1793.7578125 ], [ 6.7852486, 45.5710213, 1818.237548828125 ], [ 6.785986, 45.570908, 1824.34423828125 ], [ 6.7862002, 45.5708751, 1825.9154052734375 ] ] ] } },
{ "type": "Feature", "properties": { }, "geometry": { "type": "MultiLineString", "coordinates": [ [ [ 6.779974, 45.5741035, 1711.3343505859375 ], [ 6.7807148, 45.5739939, 1720.072021484375 ], [ 6.7845563, 45.5734716, 1794.6185302734375 ], [ 6.7855722, 45.5733283, 1807.9593505859375 ] ] ] } },
{ "type": "Feature", "properties": { }, "geometry": { "type": "MultiLineString", "coordinates": [ [ [ 6.7841946, 45.572531, 1793.873779296875 ], [ 6.7844587, 45.5725086, 1792.803955078125 ], [ 6.7848399, 45.5724637, 1799.18310546875 ], [ 6.7869194, 45.5722189, 1825.7445068359375 ], [ 6.7889296, 45.5719868, 1857.3839111328125 ], [ 6.7909419, 45.5717545, 1893.130126953125 ], [ 6.7928492, 45.5715315, 1949.86083984375 ], [ 6.794008, 45.5713993, 1993.668701171875 ], [ 6.7958871, 45.5711752, 2068.500732421875 ], [ 6.7984742, 45.570879, 2126.64111328125 ], [ 6.8003269, 45.5706578, 2182.073486328125 ], [ 6.8019655, 45.570472, 2237.017578125 ], [ 6.8026954, 45.5704004, 2256.416259765625 ], [ 6.8049208, 45.5701205, 2265.218505859375 ], [ 6.8066264, 45.5699305, 2322.318359375 ], [ 6.8075536, 45.5698117, 2374.4501953125 ], [ 6.8076512, 45.5698001, 2378.494384765625 ], [ 6.8077488, 45.5697885, 2382.1669921875 ], [ 6.8079932, 45.5697559, 2387.264892578125 ] ] ] } },
{ "type": "Feature", "properties": { }, "geometry": { "type": "MultiLineString", "coordinates": [ [ [ 6.8326828, 45.5821252, 1828.5614013671875 ], [ 6.8326157, 45.5819684, 1828.1741943359375 ], [ 6.8323752, 45.5814118, 1834.23974609375 ], [ 6.8320085, 45.5805497, 1844.557861328125 ], [ 6.8315827, 45.579555, 1911.8350830078125 ], [ 6.8312298, 45.5787304, 1936.4991455078125 ], [ 6.830907, 45.5780056, 1954.1048583984375 ], [ 6.8302623, 45.5765101, 1992.68701171875 ], [ 6.8297821, 45.5753476, 2012.9691162109375 ], [ 6.8292947, 45.5742087, 2023.6689453125 ], [ 6.8286561, 45.5727165, 2040.5255126953125 ], [ 6.8280906, 45.5714678, 2062.10546875 ], [ 6.827694, 45.5705228, 2091.245361328125 ], [ 6.8272472, 45.5694708, 2117.70849609375 ], [ 6.8265858, 45.5678784, 2142.739013671875 ], [ 6.8262858, 45.5671772, 2171.496337890625 ], [ 6.8258824, 45.5662345, 2180.582275390625 ], [ 6.8252607, 45.5647815, 2184.333984375 ], [ 6.8252470757, 45.564749659500002, 2184.639404296875 ] ] ] } },
{ "type": "Feature", "properties": { }, "geometry": { "type": "MultiLineString", "coordinates": [ [ [ 6.7945824, 45.5629174, 2105.607421875 ], [ 6.7949709, 45.5626053, 2104.33642578125 ], [ 6.795053, 45.5625394, 2106.133056640625 ], [ 6.7951334, 45.5624748, 2109.167236328125 ], [ 6.7953417, 45.5623072, 2117.905517578125 ], [ 6.7965635, 45.5613137, 2152.015869140625 ], [ 6.7988417, 45.5594857, 2265.1279296875 ], [ 6.799791, 45.558724, 2276.978271484375 ], [ 6.8007462, 45.5579574, 2302.89453125 ], [ 6.8035815, 45.5556806, 2486.4521484375 ], [ 6.804594, 45.5548683, 2483.421875 ], [ 6.8076532, 45.5524141, 2490.5859375 ], [ 6.8097133, 45.5507613, 2535.94921875 ], [ 6.8100025, 45.550533, 2543.754638671875 ] ] ] } },
{ "type": "Feature", "properties": { }, "geometry": { "type": "MultiLineString", "coordinates": [ [ [ 6.7791474, 45.5713797, 1706.9149169921875 ], [ 6.77942, 45.5712302, 1709.1719970703125 ], [ 6.7795309, 45.5711694, 1713.154052734375 ], [ 6.7803024, 45.5707465, 1740.983154296875 ], [ 6.781729, 45.5699644, 1778.651611328125 ], [ 6.7836153, 45.5689249, 1816.43359375 ], [ 6.7850097, 45.5681567, 1841.752685546875 ], [ 6.7906059, 45.5650939, 1992.6387939453125 ], [ 6.7929923, 45.5637877, 2065.055419921875 ], [ 6.7941121, 45.5631748, 2094.09716796875 ], [ 6.7945824, 45.5629174, 2105.607421875 ] ] ] } }
]
}
